{
  "updated": "2026-07-23T08:21:32.220Z",
  "capsules": {
    "66664": {
      "name": "SOYUZ-MS 28",
      "kind": "crew",
      "family": "soyuz",
      "phase": "docked",
      "stationKey": "iss",
      "since": "2026-07-03T10:34:14.509Z",
      "distanceKm": 0,
      "altitudeKm": 427,
      "inclinationDeg": 51.631,
      "l1": "1 66664U 25275A   26203.79832414  .00009714  00000+0  18351-3 0  9991",
      "l2": "2 66664  51.6313 123.8641 0006897 326.7338  33.3216 15.49102905576750"
    },
    "67796": {
      "name": "CREW DRAGON 12",
      "kind": "crew",
      "family": "dragon",
      "phase": "docked",
      "stationKey": "iss",
      "since": "2026-07-03T10:34:14.509Z",
      "distanceKm": 0,
      "altitudeKm": 427,
      "inclinationDeg": 51.631,
      "l1": "1 67796U 26031A   26203.79832414  .00009714  00000+0  18351-3 0  9999",
      "l2": "2 67796  51.6313 123.8641 0006897 326.7338  33.3216 15.49102905576960"
    },
    "68319": {
      "name": "PROGRESS-MS 33",
      "kind": "cargo",
      "family": "progress",
      "phase": "docked",
      "stationKey": "iss",
      "since": "2026-07-10T20:18:26.588Z",
      "distanceKm": 0,
      "altitudeKm": 427,
      "inclinationDeg": 51.631,
      "l1": "1 68319U 26058A   26203.79832414  .00009714  00000+0  18351-3 0  9990",
      "l2": "2 68319  51.6313 123.8641 0006897 326.7338  33.3216 15.49102905576793"
    },
    "68689": {
      "name": "CYGNUS NG-24",
      "kind": "cargo",
      "family": "cygnus",
      "phase": "docked",
      "stationKey": "iss",
      "since": "2026-07-10T20:18:26.588Z",
      "distanceKm": 0,
      "altitudeKm": 427,
      "inclinationDeg": 51.631,
      "l1": "1 68689U 26079A   26203.79832414  .00009714  00000+0  18351-3 0  9993",
      "l2": "2 68689  51.6313 123.8641 0006897 326.7338  33.3216 15.49102905577086"
    },
    "68837": {
      "name": "PROGRESS-MS 34",
      "kind": "cargo",
      "family": "progress",
      "phase": "docked",
      "stationKey": "iss",
      "since": "2026-07-10T20:18:26.588Z",
      "distanceKm": 0,
      "altitudeKm": 427,
      "inclinationDeg": 51.631,
      "l1": "1 68837U 26093A   26203.79832414  .00009714  00000+0  18351-3 0  9994",
      "l2": "2 68837  51.6313 123.8641 0006897 326.7338  33.3216 15.49102905577126"
    },
    "69049": {
      "name": "TIANZHOU-10",
      "kind": "cargo",
      "family": "tianzhou",
      "phase": "docked",
      "stationKey": "css",
      "since": "2026-07-10T20:18:26.588Z",
      "distanceKm": 0,
      "altitudeKm": 402.1,
      "inclinationDeg": 41.467,
      "l1": "1 69049U 26102A   26203.45756980  .00010144  00000+0  13442-3 0  9992",
      "l2": "2 69049  41.4671 107.8074 0001199 305.3687  54.7038 15.58249100298362"
    },
    "69180": {
      "name": "SHENZHOU-23 (SZ-23)",
      "kind": "crew",
      "family": "shenzhou",
      "phase": "docked",
      "stationKey": "css",
      "since": "2026-07-03T10:34:14.509Z",
      "distanceKm": 0,
      "altitudeKm": 402.1,
      "inclinationDeg": 41.467,
      "l1": "1 69180U 26113A   26203.45756980  .00010144  00000+0  13442-3 0  9990",
      "l2": "2 69180  41.4671 107.8074 0001199 305.3687  54.7038 15.58249100298188"
    }
  },
  "events": [
    {
      "id": "68319",
      "name": "PROGRESS-MS 33",
      "kind": "cargo",
      "family": "progress",
      "stationKey": "iss",
      "event": "launched",
      "at": "2026-07-10T20:18:26.588Z"
    },
    {
      "id": "68689",
      "name": "CYGNUS NG-24",
      "kind": "cargo",
      "family": "cygnus",
      "stationKey": "iss",
      "event": "launched",
      "at": "2026-07-10T20:18:26.588Z"
    },
    {
      "id": "68837",
      "name": "PROGRESS-MS 34",
      "kind": "cargo",
      "family": "progress",
      "stationKey": "iss",
      "event": "launched",
      "at": "2026-07-10T20:18:26.588Z"
    },
    {
      "id": "69049",
      "name": "TIANZHOU-10",
      "kind": "cargo",
      "family": "tianzhou",
      "stationKey": "css",
      "event": "launched",
      "at": "2026-07-10T20:18:26.588Z"
    }
  ]
}
